start=new Date('2023-01-23T00:00:00.000Z').valueOf();
sats=[{"COUNTRY_CODE":"US","RA_OF_ASC_NODE":"0.2942","PERIOD":"95.438","PERIAPSIS":"538.599","OBJECT_ID":"2022-111X","REV_AT_EPOCH":"2049","RCS_SIZE":"LARGE","TLE_LINE1":"1 53794U 22111X   23022.73812624  .00002383  00000-0  16776-3 0  9993","OBJECT_NAME":"STARLINK-4730","SITE":"AFETR","MEAN_MOTION_DOT":"0.00002383","APOAPSIS":"540.889","EPHEMERIS_TYPE":"0","OBJECT_TYPE":"PAYLOAD","TIME_SYSTEM":"UTC","DECAY_DATE":null,"ELEMENT_SET_NO":"999","ECCENTRICITY":"0.00016550","GP_ID":"223600174","MEAN_MOTION":"15.08840520","MEAN_ANOMALY":"250.4496","FILE":"3758192","CENTER_NAME":"EARTH","MEAN_MOTION_DDOT":"0.0000000000000","TLE_LINE2":"2 53794  53.2184   0.2942 0001655 109.6675 250.4496 15.08840520 20499","EPOCH":"2023-01-22T17:42:54.107136","SEMIMAJOR_AXIS":"6917.879","MEAN_ELEMENT_THEORY":"SGP4","INCLINATION":"53.2184","REF_FRAME":"TEME","LAUNCH_DATE":"2022-09-11","ARG_OF_PERICENTER":"109.6675","BSTAR":"0.00016776000000","CLASSIFICATION_TYPE":"U","NORAD_CAT_ID":"53794"},{"INCLINATION":"53.2201","SEMIMAJOR_AXIS":"6917.919","TLE_LINE2":"2 53795  53.2201   0.5467 0002002  88.3444 271.7778 15.08827351 20484","EPOCH":"2023-01-22T15:56:55.137984","MEAN_ELEMENT_THEORY":"SGP4","CENTER_NAME":"EARTH","MEAN_MOTION_DDOT":"0.0000000000000","NORAD_CAT_ID":"53795","CLASSIFICATION_TYPE":"U","REF_FRAME":"TEME","BSTAR":"0.00001315700000","ARG_OF_PERICENTER":"88.3444","LAUNCH_DATE":"2022-09-11","ELEMENT_SET_NO":"999","MEAN_ANOMALY":"271.7778","GP_ID":"223600180","MEAN_MOTION":"15.08827351","ECCENTRICITY":"0.00020020","FILE":"3758192","OBJECT_NAME":"STARLINK-4742","TLE_LINE1":"1 53795U 22111Y   23022.66452706 -.00000079  00000-0  13157-4 0  9999","OBJECT_TYPE":"PAYLOAD","TIME_SYSTEM":"UTC","DECAY_DATE":null,"EPHEMERIS_TYPE":"0","APOAPSIS":"541.169","SITE":"AFETR","MEAN_MOTION_DOT":"-0.00000079","PERIAPSIS":"538.399","REV_AT_EPOCH":"2048","OBJECT_ID":"2022-111Y","COUNTRY_CODE":"US","RA_OF_ASC_NODE":"0.5467","PERIOD":"95.438","RCS_SIZE":"LARGE"},{"APOAPSIS":"540.765","EPHEMERIS_TYPE":"0","MEAN_MOTION_DOT":"0.00000081","SITE":"AFETR","DECAY_DATE":null,"OBJECT_TYPE":"PAYLOAD","TIME_SYSTEM":"UTC","OBJECT_NAME":"STARLINK-4721","TLE_LINE1":"1 53796U 22111Z   23022.60380502  .00000081  00000-0  23205-4 0  9995","RCS_SIZE":"LARGE","PERIOD":"95.439","RA_OF_ASC_NODE":"340.8034","COUNTRY_CODE":"US","REV_AT_EPOCH":"2083","OBJECT_ID":"2022-111Z","PERIAPSIS":"538.821","BSTAR":"0.00002320500000","ARG_OF_PERICENTER":"84.4877","LAUNCH_DATE":"2022-09-11","REF_FRAME":"TEME","CLASSIFICATION_TYPE":"U","NORAD_CAT_ID":"53796","MEAN_MOTION_DDOT":"0.0000000000000","CENTER_NAME":"EARTH","INCLINATION":"53.2211","EPOCH":"2023-01-22T14:29:28.753728","TLE_LINE2":"2 53796  53.2211 340.8034 0001405  84.4877 275.6276 15.08824338 20836","SEMIMAJOR_AXIS":"6917.928","MEAN_ELEMENT_THEORY":"SGP4","FILE":"3757935","MEAN_ANOMALY":"275.6276","GP_ID":"223594716","ECCENTRICITY":"0.00014050","MEAN_MOTION":"15.08824338","ELEMENT_SET_NO":"999"},{"NORAD_CAT_ID":"53797","CLASSIFICATION_TYPE":"U","LAUNCH_DATE":"2022-09-11","ARG_OF_PERICENTER":"79.3714","BSTAR":"0.00004193300000","REF_FRAME":"TEME","TLE_LINE2":"2 53797  53.2174   0.4725 0002204  79.3714 280.7526 15.08832613 20483","SEMIMAJOR_AXIS":"6917.903","EPOCH":"2023-01-22T15:40:59.491776","MEAN_ELEMENT_THEORY":"SGP4","INCLINATION":"53.2174","MEAN_MOTION_DDOT":"0.0000000000000","CENTER_NAME":"EARTH","FILE":"3758208","GP_ID":"223600840","ECCENTRICITY":"0.00022040","MEAN_MOTION":"15.08832613","MEAN_ANOMALY":"280.7526","ELEMENT_SET_NO":"999","DECAY_DATE":null,"OBJECT_TYPE":"PAYLOAD","TIME_SYSTEM":"UTC","MEAN_MOTION_DOT":"0.00000379","SITE":"AFETR","EPHEMERIS_TYPE":"0","APOAPSIS":"541.293","TLE_LINE1":"1 53797U 22111AA  23022.65346634  .00000379  00000-0  41933-4 0  9997","OBJECT_NAME":"STARLINK-4723","RCS_SIZE":"LARGE","OBJECT_ID":"2022-111AA","REV_AT_EPOCH":"2048","PERIAPSIS":"538.243","PERIOD":"95.438","RA_OF_ASC_NODE":"0.4725","COUNTRY_CODE":"US"},{"DECAY_DATE":null,"TIME_SYSTEM":"UTC","OBJECT_TYPE":"PAYLOAD","APOAPSIS":"541.551","EPHEMERIS_TYPE":"0","MEAN_MOTION_DOT":"0.00039775","SITE":"AFETR","OBJECT_NAME":"STARLINK-4712","TLE_LINE1":"1 53798U 22111AB  23022.52448621  .00039775  00000-0  25216-2 0  9999","RCS_SIZE":"LARGE","REV_AT_EPOCH":"2044","OBJECT_ID":"2022-111AB","PERIAPSIS":"539.582","RA_OF_ASC_NODE":"1.0931","PERIOD":"95.455","COUNTRY_CODE":"US","CLASSIFICATION_TYPE":"U","NORAD_CAT_ID":"53798","ARG_OF_PERICENTER":"89.0841","BSTAR":"0.00252160000000","LAUNCH_DATE":"2022-09-11","REF_FRAME":"TEME","INCLINATION":"53.2198","EPOCH":"2023-01-22T12:35:15.608544","TLE_LINE2":"2 53798  53.2198   1.0931 0001423  89.0841 271.0315 15.08571381 20444","SEMIMAJOR_AXIS":"6918.702","MEAN_ELEMENT_THEORY":"SGP4","MEAN_MOTION_DDOT":"0.0000000000000","CENTER_NAME":"EARTH","FILE":"3757900","MEAN_ANOMALY":"271.0315","ECCENTRICITY":"0.00014230","GP_ID":"223593981","MEAN_MOTION":"15.08571381","ELEMENT_SET_NO":"999"},{"COUNTRY_CODE":"US","RA_OF_ASC_NODE":"353.0699","PERIOD":"95.437","PERIAPSIS":"538.756","OBJECT_ID":"2022-111AC","REV_AT_EPOCH":"2052","RCS_SIZE":"LARGE","TLE_LINE1":"1 53799U 22111AC  23022.15394285  .00009007  00000-0  58311-3 0  9993","OBJECT_NAME":"STARLINK-4710","MEAN_MOTION_DOT":"0.00009007","SITE":"AFETR","APOAPSIS":"540.666","EPHEMERIS_TYPE":"0","TIME_SYSTEM":"UTC","OBJECT_TYPE":"PAYLOAD","DECAY_DATE":null,"ELEMENT_SET_NO":"999","GP_ID":"223586847","MEAN_MOTION":"15.08851274","ECCENTRICITY":"0.00013800","MEAN_ANOMALY":"270.8034","FILE":"3757546","CENTER_NAME":"EARTH","MEAN_MOTION_DDOT":"0.0000000000000","TLE_LINE2":"2 53799  53.2193 353.0699 0001380  89.3116 270.8034 15.08851274 20527","SEMIMAJOR_AXIS":"6917.846","EPOCH":"2023-01-22T03:41:40.662240","MEAN_ELEMENT_THEORY":"SGP4","INCLINATION":"53.2193","REF_FRAME":"TEME","LAUNCH_DATE":"2022-09-11","BSTAR":"0.00058311000000","ARG_OF_PERICENTER":"89.3116","NORAD_CAT_ID":"53799","CLASSIFICATION_TYPE":"U"},{"RA_OF_ASC_NODE":"351.0094","PERIOD":"95.438","COUNTRY_CODE":"US","OBJECT_ID":"2022-111AD","REV_AT_EPOCH":"2059","PERIAPSIS":"538.351","RCS_SIZE":"LARGE","TLE_LINE1":"1 53800U 22111AD  23022.62131435  .00000128  00000-0  26175-4 0  9993","OBJECT_NAME":"STARLINK-4720","SITE":"AFETR","MEAN_MOTION_DOT":"0.00000128","APOAPSIS":"541.192","EPHEMERIS_TYPE":"0","DECAY_DATE":null,"OBJECT_TYPE":"PAYLOAD","TIME_SYSTEM":"UTC","ECCENTRICITY":"0.00020530","GP_ID":"223600711","MEAN_MOTION":"15.08831413","MEAN_ANOMALY":"285.3224","ELEMENT_SET_NO":"999","FILE":"3758194","MEAN_MOTION_DDOT":"0.0000000000000","CENTER_NAME":"EARTH","TLE_LINE2":"2 53800  53.2200 351.0094 0002053  74.7995 285.3224 15.08831413 20599","SEMIMAJOR_AXIS":"6917.907","MEAN_ELEMENT_THEORY":"SGP4","EPOCH":"2023-01-22T14:54:41.559840","INCLINATION":"53.2200","LAUNCH_DATE":"2022-09-11","ARG_OF_PERICENTER":"74.7995","BSTAR":"0.00002617500000","REF_FRAME":"TEME","CLASSIFICATION_TYPE":"U","NORAD_CAT_ID":"53800"},{"ECCENTRICITY":"0.00011240","GP_ID":"223586536","MEAN_MOTION":"15.08838283","MEAN_ANOMALY":"256.8943","ELEMENT_SET_NO":"999","FILE":"3757546","MEAN_MOTION_DDOT":"0.0000000000000","CENTER_NAME":"EARTH","SEMIMAJOR_AXIS":"6917.886","TLE_LINE2":"2 53801  53.2190 352.7221 0001124 103.2175 256.8943 15.08838283 20531","EPOCH":"2023-01-22T05:06:26.610336","MEAN_ELEMENT_THEORY":"SGP4","INCLINATION":"53.2190","LAUNCH_DATE":"2022-09-11","BSTAR":"0.00008850600000","ARG_OF_PERICENTER":"103.2175","REF_FRAME":"TEME","CLASSIFICATION_TYPE":"U","NORAD_CAT_ID":"53801","PERIOD":"95.438","RA_OF_ASC_NODE":"352.7221","COUNTRY_CODE":"US","OBJECT_ID":"2022-111AE","REV_AT_EPOCH":"2053","PERIAPSIS":"538.973","RCS_SIZE":"LARGE","TLE_LINE1":"1 53801U 22111AE  23022.21280799  .00001121  00000-0  88506-4 0  9997","OBJECT_NAME":"STARLINK-4715","SITE":"AFETR","MEAN_MOTION_DOT":"0.00001121","APOAPSIS":"540.528","EPHEMERIS_TYPE":"0","DECAY_DATE":null,"OBJECT_TYPE":"PAYLOAD","TIME_SYSTEM":"UTC"},{"ELEMENT_SET_NO":"999","MEAN_ANOMALY":"276.0736","ECCENTRICITY":"0.00019950","GP_ID":"223600693","MEAN_MOTION":"15.08844925","FILE":"3758193","INCLINATION":"53.2198","EPOCH":"2023-01-22T14:44:04.300224","TLE_LINE2":"2 53802  53.2198 350.9613 0001995  84.0484 276.0736 15.08844925 20590","SEMIMAJOR_AXIS":"6917.865","MEAN_ELEMENT_THEORY":"SGP4","CENTER_NAME":"EARTH","MEAN_MOTION_DDOT":"0.0000000000000","NORAD_CAT_ID":"53802","CLASSIFICATION_TYPE":"U","REF_FRAME":"TEME","ARG_OF_PERICENTER":"84.0484","BSTAR":"0.00061037000000","LAUNCH_DATE":"2022-09-11","PERIAPSIS":"538.350","REV_AT_EPOCH":"2059","OBJECT_ID":"2022-111AF","COUNTRY_CODE":"US","RA_OF_ASC_NODE":"350.9613","PERIOD":"95.437","RCS_SIZE":"LARGE","OBJECT_NAME":"STARLINK-4726","TLE_LINE1":"1 53802U 22111AF  23022.61393866  .00009441  00000-0  61037-3 0  9994","OBJECT_TYPE":"PAYLOAD","TIME_SYSTEM":"UTC","DECAY_DATE":null,"APOAPSIS":"541.110","EPHEMERIS_TYPE":"0","SITE":"AFETR","MEAN_MOTION_DOT":"0.00009441"},{"MEAN_MOTION_DOT":"0.00034185","SITE":"AFETR","EPHEMERIS_TYPE":"0","APOAPSIS":"540.538","DECAY_DATE":null,"OBJECT_TYPE":"PAYLOAD","TIME_SYSTEM":"UTC","TLE_LINE1":"1 53803U 22111AG  23022.25015884  .00034185  00000-0  21543-2 0  9996","OBJECT_NAME":"STARLINK-4727","RCS_SIZE":"LARGE","RA_OF_ASC_NODE":"337.9718","PERIOD":"95.436","COUNTRY_CODE":"US","OBJECT_ID":"2022-111AG","REV_AT_EPOCH":"2074","PERIAPSIS":"538.818","LAUNCH_DATE":"2022-09-11","ARG_OF_PERICENTER":"101.4421","BSTAR":"0.00215430000000","REF_FRAME":"TEME","CLASSIFICATION_TYPE":"U","NORAD_CAT_ID":"53803","MEAN_MOTION_DDOT":"0.0000000000000","CENTER_NAME":"EARTH","TLE_LINE2":"2 53803  53.2169 337.9718 0001243 101.4421 258.6710 15.08862112 20744","MEAN_ELEMENT_THEORY":"SGP4","SEMIMAJOR_AXIS":"6917.813","EPOCH":"2023-01-22T06:00:13.723776","INCLINATION":"53.2169","FILE":"3757546","GP_ID":"223586542","ECCENTRICITY":"0.00012430","MEAN_MOTION":"15.08862112","MEAN_ANOMALY":"258.6710","ELEMENT_SET_NO":"999"}];
